NORAD_CAT_ID,OBJECT_NAME,OBJECT_TYPE,EPOCH,MEAN_MOTION,ECCENTRICITY,INCLINATION,RA_OF_ASC_NODE,ARG_OF_PERICENTER,MEAN_ANOMALY,BSTAR,MEAN_MOTION_DOT,MEAN_MOTION_DDOT,TLE_LINE0,TLE_LINE1,TLE_LINE2,SEMIMAJOR_AXIS,PERIOD,APOGEE,PERIGEE,DECAYED
56784.0,STARLINK-6354,PAYLOAD,2024-06-06 08:16:48,14.98319969,0.0003388,69.9988,141.62,263.2242,96.8532,-6.3823e-05,-8.54e-06,0.0,0 STARLINK-6354,1 56784U 23078T   24158.34500498 -.00000854  00000-0 -63823-4 0  9998,2 56784  69.9988 141.6200 0003388 263.2242  96.8532 14.98319969 57103,6950.224,96.108,574.444,569.734,0.0
56784.0,STARLINK-6354,PAYLOAD,2024-06-07 08:18:50,14.98306039,0.0003455,69.9987,139.0959,268.3702,91.7062,-2.1812e-05,-3.53e-06,0.0,0 STARLINK-6354,1 56784U 23078T   24159.34641521 -.00000353  00000-0 -21812-4 0  9998,2 56784  69.9987 139.0959 0003455 268.3702  91.7062 14.98306039 57517,6950.267,96.109,574.533,569.731,0.0
56784.0,STARLINK-6354,PAYLOAD,2024-06-07 22:44:02,14.98316201,0.0003443,69.9986,137.5808,268.153,91.9235,5.3569e-05,5.46e-06,0.0,0 STARLINK-6354,1 56784U 23078T   24159.94725439  .00000546  00000-0  53569-4 0  9991,2 56784  69.9986 137.5808 0003443 268.1530  91.9235 14.98316201 57343,6950.236,96.108,574.494,569.708,0.0
56784.0,STARLINK-6354,PAYLOAD,2024-06-08 05:08:34,14.9832018,0.0003423,69.9986,136.9072,267.613,92.4637,9.3903e-05,1.027e-05,0.0,0 STARLINK-6354,1 56784U 23078T   24160.21429300  .00001027  00000-0  93903-4 0  9992,2 56784  69.9986 136.9072 0003423 267.6130  92.4637 14.98320180 57643,6950.223,96.108,574.467,569.709,0.0
56784.0,STARLINK-6354,PAYLOAD,2024-06-08 08:20:50,14.98322453,0.0003389,69.9987,136.5705,267.529,92.5481,0.00011541,1.284e-05,0.0,0 STARLINK-6354,1 56784U 23078T   24160.34781186  .00001284  00000-0  11541-3 0  9991,2 56784  69.9987 136.5705 0003389 267.5290  92.5481 14.98322453 57407,6950.216,96.107,574.437,569.726,0.0
56784.0,STARLINK-6354,PAYLOAD,2024-06-08 22:46:03,14.98319359,0.0003318,69.9989,135.0555,267.5316,92.5463,0.0001407,1.586e-05,0.0,0 STARLINK-6354,1 56784U 23078T   24160.94865696  .00001586  00000-0  14070-3 0  9991,2 56784  69.9989 135.0555 0003318 267.5316  92.5463 14.98319359 57497,6950.226,96.108,574.397,569.785,0.0
56784.0,STARLINK-6354,PAYLOAD,2024-06-09 05:10:36,14.98325856,0.0003328,69.9988,134.3825,267.4993,92.5785,0.00011636,1.295e-05,0.0,0 STARLINK-6354,1 56784U 23078T   24161.21569548  .00001295  00000-0  11636-3 0  9991,2 56784  69.9988 134.3825 0003328 267.4993  92.5785 14.98325856 57798,6950.206,96.107,574.384,569.758,0.0
56784.0,STARLINK-6354,PAYLOAD,2024-06-09 08:22:52,14.98328042,0.0003271,69.9989,134.0456,267.4259,92.6525,0.00013469,1.514e-05,0.0,0 STARLINK-6354,1 56784U 23078T   24161.34921392  .00001514  00000-0  13469-3 0  9994,2 56784  69.9989 134.0456 0003271 267.4259  92.6525 14.98328042 57555,6950.199,96.107,574.337,569.791,0.0
56784.0,STARLINK-6354,PAYLOAD,2024-06-09 22:48:05,14.98326285,0.0003181,69.9991,132.5308,267.3559,92.7236,-1.4946e-05,-2.71e-06,0.0,0 STARLINK-6354,1 56784U 23078T   24161.95006103 -.00000271  00000-0 -14946-4 0  9998,2 56784  69.9991 132.5308 0003181 267.3559  92.7236 14.98326285 57646,6950.204,96.107,574.28,569.859,0.0
56784.0,STARLINK-6354,PAYLOAD,2024-06-10 08:24:53,14.98328057,0.0003041,69.9993,131.5209,266.4275,93.6536,3.4398e-05,3.17e-06,0.0,0 STARLINK-6354,1 56784U 23078T   24162.35061934  .00000317  00000-0  34398-4 0  9998,2 56784  69.9993 131.5209 0003041 266.4275  93.6536 14.98328057 57964,6950.199,96.107,574.177,569.95,0.0
56784.0,STARLINK-6354,PAYLOAD,2024-06-10 14:49:25,14.98329122,0.0003092,69.9994,130.8477,267.9769,92.1036,-2.1033e-05,-3.44e-06,0.0,0 STARLINK-6354,1 56784U 23078T   24162.61766018 -.00000344  00000-0 -21033-4 0  9996,2 56784  69.9994 130.8477 0003092 267.9769  92.1036 14.98329122 57743,6950.196,96.107,574.21,569.912,0.0
56784.0,STARLINK-6354,PAYLOAD,2024-06-10 22:50:06,14.98332503,0.0002945,69.9994,130.0059,268.8547,91.2274,-5.7221e-05,-7.76e-06,0.0,0 STARLINK-6354,1 56784U 23078T   24162.95145989 -.00000776  00000-0 -57221-4 0  9998,2 56784  69.9994 130.0059 0002945 268.8547  91.2274 14.98332503 57797,6950.185,96.107,574.097,570.003,0.0
56784.0,STARLINK-6354,PAYLOAD,2024-06-11 08:26:54,14.98330714,0.0003119,69.9992,128.9962,267.8791,92.2011,2.04e-05,1.5e-06,0.0,0 STARLINK-6354,1 56784U 23078T   24163.35201821  .00000150  00000-0  20400-4 0  9994,2 56784  69.9992 128.9962 0003119 267.8791  92.2011 14.98330714 57857,6950.191,96.107,574.223,569.888,0.0
56784.0,STARLINK-6354,PAYLOAD,2024-06-12 03:40:31,14.98324317,0.0002961,69.9993,126.9762,266.308,93.7741,-2.1444e-05,-3.49e-06,0.0,0 STARLINK-6354,1 56784U 23078T   24164.15314464 -.00000349  00000-0 -21444-4 0  9992,2 56784  69.9993 126.9762 0002961 266.3080  93.7741 14.98324317 58234,6950.21,96.107,574.133,570.018,0.0
56784.0,STARLINK-6354,PAYLOAD,2024-06-12 05:16:39,14.98325208,0.0002943,69.9993,126.8079,266.0511,94.0312,-1.0189e-05,-2.15e-06,0.0,0 STARLINK-6354,1 56784U 23078T   24164.21990393 -.00000215  00000-0 -10189-4 0  9996,2 56784  69.9993 126.8079 0002943 266.0511  94.0312 14.98325208 57989,6950.208,96.107,574.118,570.027,0.0
56784.0,STARLINK-6354,PAYLOAD,2024-06-12 14:53:28,14.98310992,0.0003012,69.999,125.7983,272.9851,87.0964,0.00029252,3.397e-05,0.0,0 STARLINK-6354,1 56784U 23078T   24164.62046756  .00003397  00000-0  29252-3 0  9998,2 56784  69.9990 125.7983 0003012 272.9851  87.0964 14.98310992 58046,6950.252,96.108,574.21,570.023,0.0
56784.0,STARLINK-6354,PAYLOAD,2024-06-13 03:42:32,14.98331671,0.0003048,69.9989,124.4514,269.1123,90.9687,2.2175e-05,1.72e-06,0.0,0 STARLINK-6354,1 56784U 23078T   24165.15453990  .00000172  00000-0  22175-4 0  9995,2 56784  69.9989 124.4514 0003048 269.1123  90.9687 14.98331671 58388,6950.188,96.107,574.171,569.934,0.0
56784.0,STARLINK-6354,PAYLOAD,2024-06-13 06:54:48,14.9833269,0.0003035,69.999,124.1149,269.3361,90.745,3.3901e-05,3.12e-06,0.0,0 STARLINK-6354,1 56784U 23078T   24165.28805883  .00000312  00000-0  33901-4 0  9996,2 56784  69.9990 124.1149 0003035 269.3361  90.7450 14.98332690 58145,6950.185,96.107,574.159,569.94,0.0
56784.0,STARLINK-6354,PAYLOAD,2024-06-13 22:56:09,14.98328334,0.0003017,69.9991,122.431,269.077,91.0044,3.3724e-05,3.09e-06,0.0,0 STARLINK-6354,1 56784U 23078T   24165.95566125  .00000309  00000-0  33724-4 0  9992,2 56784  69.9991 122.4310 0003017 269.0770  91.0044 14.98328334 58242,6950.198,96.107,574.16,569.966,0.0
56784.0,STARLINK-6354,PAYLOAD,2024-06-14 06:56:49,14.98331662,0.000301,69.9992,121.5899,269.944,90.1374,6.5999e-05,6.95e-06,0.0,0 STARLINK-6354,1 56784U 23078T   24166.28945831  .00000695  00000-0  65999-4 0  9991,2 56784  69.9992 121.5899 0003010 269.9440  90.1374 14.98331662 58290,6950.188,96.107,574.145,569.961,0.0
56784.0,STARLINK-6354,PAYLOAD,2024-06-14 22:58:09,14.98332672,0.0002988,69.9993,119.9067,270.0484,90.0333,1.4682e-05,8.2e-07,0.0,0 STARLINK-6354,1 56784U 23078T   24166.95705789  .00000082  00000-0  14682-4 0  9994,2 56784  69.9993 119.9067 0002988 270.0484  90.0333 14.98332672 58390,6950.185,96.107,574.126,569.973,0.0
56784.0,STARLINK-6354,PAYLOAD,2024-06-15 06:58:49,14.98337776,0.000297,69.9993,119.0651,270.0781,90.0037,4.2493e-05,4.14e-06,0.0,0 STARLINK-6354,1 56784U 23078T   24167.29085281  .00000414  00000-0  42493-4 0  9990,2 56784  69.9993 119.0651 0002970 270.0781  90.0037 14.98337776 58448,6950.169,96.107,574.098,569.97,0.0
56784.0,STARLINK-6354,PAYLOAD,2024-06-15 23:00:10,14.98330001,0.0002873,69.9996,117.3819,270.7092,89.3738,-2.7297e-05,-4.19e-06,0.0,0 STARLINK-6354,1 56784U 23078T   24167.95845818 -.00000419  00000-0 -27297-4 0  9995,2 56784  69.9996 117.3819 0002873 270.7092  89.3738 14.98330001 58546,6950.193,96.107,574.055,570.061,0.0
56784.0,STARLINK-6354,PAYLOAD,2024-06-16 13:25:23,14.98327634,0.0002684,70.0001,115.8688,267.0665,93.0186,-6.8367e-05,-9.09e-06,0.0,0 STARLINK-6354,1 56784U 23078T   24168.55929970 -.00000909  00000-0 -68367-4 0  9991,2 56784  70.0001 115.8688 0002684 267.0665  93.0186 14.98327634 58635,6950.2,96.107,573.931,570.2,0.0
56784.0,STARLINK-6354,PAYLOAD,2024-06-16 23:02:11,14.98327322,0.0002724,70.0001,114.8585,270.9012,89.1835,-4.0399e-05,-5.75e-06,0.0,0 STARLINK-6354,1 56784U 23078T   24168.95985925 -.00000575  00000-0 -40399-4 0  9991,2 56784  70.0001 114.8585 0002724 270.9012  89.1835 14.98327322 58691,6950.201,96.107,573.959,570.173,0.0
56784.0,STARLINK-6354,PAYLOAD,2024-06-17 21:28:04,14.98327374,0.0002682,69.9999,112.5011,267.9781,92.107,3.4874e-06,-5.1e-07,0.0,0 STARLINK-6354,1 56784U 23078T   24169.89449911 -.00000051  00000-0  34874-5 0  9995,2 56784  69.9999 112.5011 0002682 267.9781  92.1070 14.98327374 58833,6950.201,96.107,573.93,570.202,0.0
56784.0,STARLINK-6354,PAYLOAD,2024-06-18 05:28:45,14.98327457,0.0002706,69.9999,111.6595,267.3397,92.7453,-2.4982e-06,-1.23e-06,0.0,0 STARLINK-6354,1 56784U 23078T   24170.22829970 -.00000123  00000-0 -24982-5 0  9991,2 56784  69.9999 111.6595 0002706 267.3397  92.7453 14.98327457 59142,6950.201,96.107,573.946,570.185,0.0
56784.0,STARLINK-6354,PAYLOAD,2024-06-18 13:29:24,14.98343093,0.0002927,69.9997,110.818,256.758,103.3252,-0.00025106,-3.088e-05,0.0,0 STARLINK-6354,1 56784U 23078T   24170.56209413 -.00003088  00000-0 -25106-3 0  9992,2 56784  69.9997 110.8180 0002927 256.7580 103.3252 14.98343093 58938,6950.152,96.106,574.052,569.983,0.0
56784.0,STARLINK-6354,PAYLOAD,2024-06-18 21:30:05,14.98324249,0.0002859,69.9996,109.9762,270.3715,89.7116,5.2173e-05,5.29e-06,0.0,0 STARLINK-6354,1 56784U 23078T   24170.89590076  .00000529  00000-0  52173-4 0  9996,2 56784  69.9996 109.9762 0002859 270.3715  89.7116 14.98324249 58981,6950.211,96.107,574.063,570.089,0.0
56784.0,STARLINK-6354,PAYLOAD,2024-06-19 05:30:45,14.98328727,0.0002801,69.9998,109.1344,268.5933,91.4905,5.7644e-05,5.95e-06,0.0,0 STARLINK-6354,1 56784U 23078T   24171.22969837  .00000595  00000-0  57644-4 0  9990,2 56784  69.9998 109.1344 0002801 268.5933  91.4905 14.98328727 59295,6950.197,96.107,574.009,570.115,0.0
